GALAXY 33 (G-33)        
1 54026U 22128A   26063.13061422  .00000000  00000+0  00000+0 0  9996
2 54026   0.0180 168.7038 0001915 172.7127  94.5150  1.00273446 12682
GALAXY 34 (G-34)        
1 54027U 22128B   26063.13148090  .00000046  00000+0  00000+0 0  9994
2 54027   0.0110 135.8392 0001372 210.4055  93.9736  1.00272922 12851
GALAXY 31 (G-31)        
1 54243U 22153A   26063.13304090  .00000001  00000+0  00000+0 0  9997
2 54243   0.0142 195.2478 0001497 157.1848  96.3339  1.00272403  6073
GALAXY 32 (G-32)        
1 54244U 22153B   26062.49710671  .00000000  00000+0  00000+0 0  9991
2 54244   0.0219 134.8403 0003005 219.9556 254.4371  1.00269468 12084
GALAXY 35 (G-35)        
1 54741U 22170A   26063.18586576 -.00000174  00000+0  00000+0 0  9997
2 54741   0.0156 202.8004 0002076 141.5007 151.4392  1.00270384 11848
GALAXY 36 (G-36)        
1 54742U 22170B   26063.18586576 -.00000197  00000+0  00000+0 0  9993
2 54742   0.0150 144.4796 0002091 252.0771 103.2711  1.00270705 11729
GALAXY 37 (G-37)        
1 57493U 23112A   26063.13182757  .00000036  00000+0  00000+0 0  9995
2 57493   0.0221 122.0334 0002059 223.6859  96.6048  1.00272290  9488
