[{"OBJECT_NAME":"GALAXY 33 (G-33)","OBJECT_ID":"2022-128A","EPOCH":"2026-03-04T03:08:05.068608","MEAN_MOTION":1.00273446,"ECCENTRICITY":0.0001915,"INCLINATION":0.018,"RA_OF_ASC_NODE":168.7038,"ARG_OF_PERICENTER":172.7127,"MEAN_ANOMALY":94.515,"EPHEMERIS_TYPE":0,"CLASSIFICATION_TYPE":"U","NORAD_CAT_ID":54026,"ELEMENT_SET_NO":999,"REV_AT_EPOCH":1268,"BSTAR":0,"MEAN_MOTION_DOT":0,"MEAN_MOTION_DDOT":0},{"OBJECT_NAME":"GALAXY 34 (G-34)","OBJECT_ID":"2022-128B","EPOCH":"2026-03-04T03:09:19.949760","MEAN_MOTION":1.00272922,"ECCENTRICITY":0.0001372,"INCLINATION":0.011,"RA_OF_ASC_NODE":135.8392,"ARG_OF_PERICENTER":210.4055,"MEAN_ANOMALY":93.9736,"EPHEMERIS_TYPE":0,"CLASSIFICATION_TYPE":"U","NORAD_CAT_ID":54027,"ELEMENT_SET_NO":999,"REV_AT_EPOCH":1285,"BSTAR":0,"MEAN_MOTION_DOT":4.6e-7,"MEAN_MOTION_DDOT":0},{"OBJECT_NAME":"GALAXY 31 (G-31)","OBJECT_ID":"2022-153A","EPOCH":"2026-03-04T03:11:34.733760","MEAN_MOTION":1.00272403,"ECCENTRICITY":0.0001497,"INCLINATION":0.0142,"RA_OF_ASC_NODE":195.2478,"ARG_OF_PERICENTER":157.1848,"MEAN_ANOMALY":96.3339,"EPHEMERIS_TYPE":0,"CLASSIFICATION_TYPE":"U","NORAD_CAT_ID":54243,"ELEMENT_SET_NO":999,"REV_AT_EPOCH":607,"BSTAR":0,"MEAN_MOTION_DOT":1.0e-8,"MEAN_MOTION_DDOT":0},{"OBJECT_NAME":"GALAXY 32 (G-32)","OBJECT_ID":"2022-153B","EPOCH":"2026-03-03T11:55:50.019744","MEAN_MOTION":1.00269468,"ECCENTRICITY":0.00030055,"INCLINATION":0.0219,"RA_OF_ASC_NODE":134.8403,"ARG_OF_PERICENTER":219.9556,"MEAN_ANOMALY":254.4371,"EPHEMERIS_TYPE":0,"CLASSIFICATION_TYPE":"U","NORAD_CAT_ID":54244,"ELEMENT_SET_NO":999,"REV_AT_EPOCH":1208,"BSTAR":0,"MEAN_MOTION_DOT":0,"MEAN_MOTION_DDOT":0},{"OBJECT_NAME":"GALAXY 35 (G-35)","OBJECT_ID":"2022-170A","EPOCH":"2026-03-04T04:27:38.801664","MEAN_MOTION":1.00270384,"ECCENTRICITY":0.0002076,"INCLINATION":0.0156,"RA_OF_ASC_NODE":202.8004,"ARG_OF_PERICENTER":141.5007,"MEAN_ANOMALY":151.4392,"EPHEMERIS_TYPE":0,"CLASSIFICATION_TYPE":"U","NORAD_CAT_ID":54741,"ELEMENT_SET_NO":999,"REV_AT_EPOCH":1184,"BSTAR":0,"MEAN_MOTION_DOT":-1.74e-6,"MEAN_MOTION_DDOT":0},{"OBJECT_NAME":"GALAXY 36 (G-36)","OBJECT_ID":"2022-170B","EPOCH":"2026-03-04T04:27:38.801664","MEAN_MOTION":1.00270705,"ECCENTRICITY":0.0002091,"INCLINATION":0.015,"RA_OF_ASC_NODE":144.4796,"ARG_OF_PERICENTER":252.0771,"MEAN_ANOMALY":103.2711,"EPHEMERIS_TYPE":0,"CLASSIFICATION_TYPE":"U","NORAD_CAT_ID":54742,"ELEMENT_SET_NO":999,"REV_AT_EPOCH":1172,"BSTAR":0,"MEAN_MOTION_DOT":-1.97e-6,"MEAN_MOTION_DDOT":0},{"OBJECT_NAME":"GALAXY 37 (G-37)","OBJECT_ID":"2023-112A","EPOCH":"2026-03-04T03:09:49.902048","MEAN_MOTION":1.0027229,"ECCENTRICITY":0.0002059,"INCLINATION":0.0221,"RA_OF_ASC_NODE":122.0334,"ARG_OF_PERICENTER":223.6859,"MEAN_ANOMALY":96.6048,"EPHEMERIS_TYPE":0,"CLASSIFICATION_TYPE":"U","NORAD_CAT_ID":57493,"ELEMENT_SET_NO":999,"REV_AT_EPOCH":948,"BSTAR":0,"MEAN_MOTION_DOT":3.6e-7,"MEAN_MOTION_DDOT":0}]
